NORAD_CAT_ID,OBJECT_NAME,OBJECT_TYPE,EPOCH,MEAN_MOTION,ECCENTRICITY,INCLINATION,RA_OF_ASC_NODE,ARG_OF_PERICENTER,MEAN_ANOMALY,BSTAR,MEAN_MOTION_DOT,MEAN_MOTION_DDOT,TLE_LINE0,TLE_LINE1,TLE_LINE2,SEMIMAJOR_AXIS,PERIOD,APOGEE,PERIGEE,DECAYED
54176.0,STARLINK-5154,PAYLOAD,2023-09-11 09:05:23,15.08842715,0.000131,53.2168,130.5171,89.4106,270.7036,6.4435e-05,7.38e-06,0.0,0 STARLINK-5154,1 54176U 22141V   23254.37874536  .00000738  00000-0  64435-4 0  9996,2 54176  53.2168 130.5171 0001310  89.4106 270.7036 15.08842715 48436,6917.872,95.437,540.643,538.831,0.0
54176.0,STARLINK-5154,PAYLOAD,2023-09-12 00:59:14,15.08852314,0.0001296,53.2171,127.5434,86.1575,273.9566,0.00016346,2.315e-05,0.0,0 STARLINK-5154,1 54176U 22141V   23255.04113798  .00002315  00000-0  16346-3 0  9997,2 54176  53.2171 127.5434 0001296  86.1575 273.9566 15.08852314 48535,6917.843,95.437,540.604,538.811,0.0
54176.0,STARLINK-5154,PAYLOAD,2023-09-12 21:39:15,15.08840312,0.0001491,53.2176,123.6755,84.225,275.8912,3.9788e-05,3.45e-06,0.0,0 STARLINK-5154,1 54176U 22141V   23255.90226796  .00000345  00000-0  39788-4 0  9992,2 54176  53.2176 123.6755 0001491  84.2250 275.8912 15.08840312 48664,6917.879,95.438,540.776,538.713,0.0
54176.0,STARLINK-5154,PAYLOAD,2023-09-12 23:14:39,15.08841914,0.0001486,53.2177,123.3777,85.7018,274.4144,6.5178e-05,7.5e-06,0.0,0 STARLINK-5154,1 54176U 22141V   23255.96850714  .00000750  00000-0  65178-4 0  9993,2 54176  53.2177 123.3777 0001486  85.7018 274.4144 15.08841914 48670,6917.875,95.437,540.768,538.712,0.0
54176.0,STARLINK-5154,PAYLOAD,2023-09-13 18:19:15,15.08852877,0.0001233,53.2168,119.8105,92.0273,268.0861,0.00025715,3.808e-05,0.0,0 STARLINK-5154,1 54176U 22141V   23256.76337927  .00003808  00000-0  25715-3 0  9997,2 54176  53.2168 119.8105 0001233  92.0273 268.0861 15.08852877 48797,6917.841,95.437,540.559,538.853,0.0
54176.0,STARLINK-5154,PAYLOAD,2023-09-13 21:30:02,15.08855348,0.0001257,53.2169,119.2164,90.0732,270.0405,0.00028471,4.248e-05,0.0,0 STARLINK-5154,1 54176U 22141V   23256.89585785  .00004248  00000-0  28471-3 0  9999,2 54176  53.2169 119.2164 0001257  90.0732 270.0405 15.08855348 48817,6917.833,95.437,540.568,538.829,0.0
54176.0,STARLINK-5154,PAYLOAD,2023-09-14 00:40:48,15.08858124,0.0001356,53.217,118.6209,93.4931,266.6216,0.00045114,6.903e-05,0.0,0 STARLINK-5154,1 54176U 22141V   23257.02833767  .00006903  00000-0  45114-3 0  9994,2 54176  53.2170 118.6209 0001356  93.4931 266.6216 15.08858124 48838,6917.825,95.436,540.628,538.752,0.0
54176.0,STARLINK-5154,PAYLOAD,2023-09-14 18:10:03,15.08836423,0.0001195,53.2167,115.3496,86.245,273.8679,-4.3091e-05,-9.73e-06,0.0,0 STARLINK-5154,1 54176U 22141V   23257.75698655 -.00000973  00000-0 -43091-4 0  9995,2 54176  53.2167 115.3496 0001195  86.2450 273.8679 15.08836423 48946,6917.891,95.438,540.583,538.93,0.0
54176.0,STARLINK-5154,PAYLOAD,2023-09-14 21:20:49,15.08835278,0.0001289,53.2166,114.7549,93.0128,267.1012,-6.2186e-05,-1.277e-05,0.0,0 STARLINK-5154,1 54176U 22141V   23257.88946731 -.00001277  00000-0 -62186-4 0  9994,2 54176  53.2166 114.7549 0001289  93.0128 267.1012 15.08835278 48965,6917.895,95.438,540.652,538.868,0.0
54176.0,STARLINK-5154,PAYLOAD,2023-09-14 22:56:13,15.08833734,0.000137,53.217,114.4574,91.0273,269.0876,-8.9141e-05,-1.706e-05,0.0,0 STARLINK-5154,1 54176U 22141V   23257.95570831 -.00001706  00000-0 -89141-4 0  9993,2 54176  53.2170 114.4574 0001370  91.0273 269.0876 15.08833734 48970,6917.9,95.438,540.712,538.817,0.0
54176.0,STARLINK-5154,PAYLOAD,2023-09-16 00:22:23,15.08845703,0.0001256,53.2162,109.7008,89.5231,270.5905,0.00026199,3.885e-05,0.0,0 STARLINK-5154,1 54176U 22141V   23259.01554767  .00003885  00000-0  26199-3 0  9993,2 54176  53.2162 109.7008 0001256  89.5231 270.5905 15.08845703 49137,6917.863,95.437,540.597,538.859,0.0
54176.0,STARLINK-5154,PAYLOAD,2023-09-16 06:43:55,15.08847979,0.0001277,53.2163,108.5116,91.6393,268.4745,0.00045173,6.91e-05,0.0,0 STARLINK-5154,1 54176U 22141V   23259.28050824  .00006910  00000-0  45173-3 0  9992,2 54176  53.2163 108.5116 0001277  91.6393 268.4745 15.08847979 49170,6917.856,95.437,540.604,538.838,0.0
54176.0,STARLINK-5154,PAYLOAD,2023-09-16 17:51:38,15.0883683,0.000124,53.2159,106.4291,90.2641,269.8494,0.00014164,1.967e-05,0.0,0 STARLINK-5154,1 54176U 22141V   23259.74419374  .00001967  00000-0  14164-3 0  9995,2 54176  53.2159 106.4291 0001240  90.2641 269.8494 15.08836830 49245,6917.89,95.438,540.613,538.897,0.0
54176.0,STARLINK-5154,PAYLOAD,2023-09-17 00:13:10,15.08844128,0.00012,53.2159,105.2403,86.8242,273.2887,0.00030851,4.626e-05,0.0,0 STARLINK-5154,1 54176U 22141V   23260.00915244  .00004626  00000-0  30851-3 0  9999,2 54176  53.2159 105.2403 0001200  86.8242 273.2887 15.08844128 49289,6917.868,95.437,540.563,538.903,0.0
54176.0,STARLINK-5154,PAYLOAD,2023-09-18 00:03:57,15.08853897,0.0001235,53.2157,100.7804,92.2587,267.8546,0.00035127,5.309e-05,0.0,0 STARLINK-5154,1 54176U 22141V   23261.00274829  .00005309  00000-0  35127-3 0  9997,2 54176  53.2157 100.7804 0001235  92.2587 267.8546 15.08853897 49434,6917.838,95.437,540.557,538.849,0.0
54176.0,STARLINK-5154,PAYLOAD,2023-09-18 17:33:12,15.08842502,0.00015,53.2163,97.5083,84.8131,275.3032,0.00011358,1.52e-05,0.0,0 STARLINK-5154,1 54176U 22141V   23261.73139280  .00001520  00000-0  11358-3 0  9999,2 54176  53.2163  97.5083 0001500  84.8131 275.3032 15.08842502 49547,6917.873,95.437,540.775,538.7,0.0
54176.0,STARLINK-5154,PAYLOAD,2023-09-18 20:43:58,15.08845174,0.0001436,53.2157,96.9136,68.0373,292.0771,0.00019055,2.746e-05,0.0,0 STARLINK-5154,1 54176U 22141V   23261.86387257  .00002746  00000-0  19055-3 0  9995,2 54176  53.2157  96.9136 0001436  68.0373 292.0771 15.08845174 49568,6917.865,95.437,540.723,538.736,0.0
54176.0,STARLINK-5154,PAYLOAD,2023-09-19 18:59:22,15.08849744,0.000125,53.2146,92.7527,81.7152,278.3982,0.0002385,3.511e-05,0.0,0 STARLINK-5154,1 54176U 22141V   23262.79122767  .00003511  00000-0  23850-3 0  9990,2 54176  53.2146  92.7527 0001250  81.7152 278.3982 15.08849744 49709,6917.851,95.437,540.58,538.851,0.0
54176.0,STARLINK-5154,PAYLOAD,2023-09-20 12:28:37,15.08835787,0.0001671,53.2152,89.4816,79.0362,281.0818,3.4184e-06,-2.34e-06,0.0,0 STARLINK-5154,1 54176U 22141V   23263.51987460 -.00000234  00000-0  34184-5 0  9994,2 54176  53.2152  89.4816 0001671  79.0362 281.0818 15.08835787 49813,6917.893,95.438,540.914,538.602,0.0
54176.0,STARLINK-5154,PAYLOAD,2023-09-20 18:50:09,15.08831604,0.0001321,53.2159,88.2916,87.3185,272.7958,-7.1566e-05,-1.426e-05,0.0,0 STARLINK-5154,1 54176U 22141V   23263.78483640 -.00001426  00000-0 -71566-4 0  9993,2 54176  53.2159  88.2916 0001321  87.3185 272.7958 15.08831604 49855,6917.906,95.438,540.685,538.857,0.0
54176.0,STARLINK-5154,PAYLOAD,2023-09-20 22:00:56,15.08833421,0.0001352,53.2162,87.6956,89.924,270.1907,-2.0514e-05,-6.14e-06,0.0,0 STARLINK-5154,1 54176U 22141V   23263.91731723 -.00000614  00000-0 -20514-4 0  9991,2 54176  53.2162  87.6956 0001352  89.9240 270.1907 15.08833421 49877,6917.9,95.438,540.701,538.83,0.0
54176.0,STARLINK-5154,PAYLOAD,2023-09-21 05:57:51,15.08836514,0.000135,53.216,86.2096,89.1417,270.973,8.7832e-05,1.11e-05,0.0,0 STARLINK-5154,1 54176U 22141V   23264.24851809  .00001110  00000-0  87832-4 0  9992,2 54176  53.2160  86.2096 0001350  89.1417 270.9730 15.08836514 49925,6917.891,95.438,540.69,538.822,0.0
54176.0,STARLINK-5154,PAYLOAD,2023-09-21 18:40:56,15.0884534,0.000136,53.2168,83.8299,91.2846,268.8301,0.0002716,4.038e-05,0.0,0 STARLINK-5154,1 54176U 22141V   23264.77843694  .00004038  00000-0  27160-3 0  9992,2 54176  53.2168  83.8299 0001360  91.2846 268.8301 15.08845340 50000,6917.864,95.437,540.67,538.788,0.0
54176.0,STARLINK-5154,PAYLOAD,2023-09-22 12:10:11,15.08843962,0.0001391,53.2168,80.5588,91.8092,268.306,0.00032751,4.929e-05,0.0,0 STARLINK-5154,1 54176U 22141V   23265.50707989  .00004929  00000-0  32751-3 0  9991,2 54176  53.2168  80.5588 0001391  91.8092 268.3060 15.08843962 50115,6917.868,95.437,540.696,538.771,0.0
54176.0,STARLINK-5154,PAYLOAD,2023-09-22 18:31:44,15.0884929,0.0001347,53.2172,79.3713,86.2981,273.8165,0.00039056,5.935e-05,0.0,0 STARLINK-5154,1 54176U 22141V   23265.77203808  .00005935  00000-0  39056-3 0  9994,2 54176  53.2172  79.3713 0001347  86.2981 273.8165 15.08849290 50153,6917.852,95.437,540.649,538.785,0.0
54176.0,STARLINK-5154,PAYLOAD,2023-09-23 12:00:58,15.08840701,0.0001297,53.2178,76.0977,87.4011,272.713,4.7148e-05,4.63e-06,0.0,0 STARLINK-5154,1 54176U 22141V   23266.50067828  .00000463  00000-0  47148-4 0  9999,2 54176  53.2178  76.0977 0001297  87.4011 272.7130 15.08840701 50266,6917.878,95.438,540.64,538.846,0.0
54176.0,STARLINK-5154,PAYLOAD,2023-09-23 18:22:30,15.08850884,0.0001318,53.2177,74.9097,85.0794,275.0349,0.00028157,4.197e-05,0.0,0 STARLINK-5154,1 54176U 22141V   23266.76563493  .00004197  00000-0  28157-3 0  9992,2 54176  53.2177  74.9097 0001318  85.0794 275.0349 15.08850884 50307,6917.847,95.437,540.624,538.8,0.0
54176.0,STARLINK-5154,PAYLOAD,2023-09-24 16:37:54,15.08847249,0.0001472,53.2176,70.7468,112.8056,247.3091,0.00016208,2.293e-05,0.0,0 STARLINK-5154,1 54176U 22141V   23267.69299368  .00002293  00000-0  16208-3 0  9991,2 54176  53.2176  70.7468 0001472 112.8056 247.3091 15.08847249 50445,6917.858,95.437,540.742,538.705,0.0
54176.0,STARLINK-5154,PAYLOAD,2023-09-24 19:48:40,15.08856329,0.0001293,53.2177,70.1519,75.9731,284.1404,0.00040725,6.202e-05,0.0,0 STARLINK-5154,1 54176U 22141V   23267.82547113  .00006202  00000-0  40725-3 0  9995,2 54176  53.2177  70.1519 0001293  75.9731 284.1404 15.08856329 50465,6917.83,95.437,540.59,538.801,0.0
54176.0,STARLINK-5154,PAYLOAD,2023-09-25 03:45:36,15.08852713,0.000131,53.2179,68.6637,80.4301,279.6839,0.00036383,5.509e-05,0.0,0 STARLINK-5154,1 54176U 22141V   23268.15667305  .00005509  00000-0  36383-3 0  9992,2 54176  53.2179  68.6637 0001310  80.4301 279.6839 15.08852713 50514,6917.842,95.437,540.613,538.8,0.0
